TEIKYOSAT-4 (OORURI)    
1 49396U 21102B   26068.67534185  .00002438  00000+0  15740-3 0  9994
2 49396  97.3797 101.9931 0010345 276.5421  83.4630 15.09119208237719
STARLINK-4769           
1 53843U 22114AB  26068.04909813  .00008313  00000+0  53967-3 0  9996
2 53843  53.2170 297.0856 0001598  98.8098 261.3075 15.08848782192877
